DMSP 5D-3 F16 (USA 172) 
1 28054U 03048A   26191.32130787 -.00000047  00000+0 -11106-5 0  9990
2 28054  98.9887 215.3020 0008202  83.1201 109.6920 14.14484867172756
METEOSAT-9 (MSG-2)      
1 28912U 05049B   26191.21945689  .00000126  00000+0  00000+0 0  9990
2 28912   9.4108  53.9352 0002026 358.4708   0.4202  1.00269823  7228
DMSP 5D-3 F17 (USA 191) 
1 29522U 06050A   26191.29226145 -.00000011  00000+0  16908-4 0  9991
2 29522  98.7384 197.3900 0010025 357.1163   2.9951 14.14995928 15693
FENGYUN 3A              
1 32958U 08026A   26190.74299394  .00000025  00000+0  32429-4 0  9998
2 32958  98.6887 131.1547 0009815  65.9784 294.2419 14.19575738938606
GOES 14                 
1 35491U 09033A   26191.30709832 -.00000344  00000+0  00000+0 0  9998
2 35491   1.7463  82.7556 0001914  38.8015  45.3310  1.00100646  6828
DMSP 5D-3 F18 (USA 210) 
1 35951U 09057A   26191.26511056  .00000201  00000+0  12733-3 0  9990
2 35951  98.9052 171.9856 0010935 179.3478 180.7711 14.14909512862852
EWS-G2 (GOES 15)        
1 36411U 10008A   26191.18914152  .00000032  00000+0  00000+0 0  9997
2 36411   1.3378  82.5274 0005228  52.6779 284.3753  1.00268016 59864
COMS 1                  
1 36744U 10032A   26191.06434595 -.00000223  00000+0  00000+0 0  9991
2 36744   4.8608  75.0799 0011329  14.8797 203.6336  0.99169083 51319
FENGYUN 3B              
1 37214U 10059A   26191.30117529 -.00000028  00000+0  88306-5 0  9999
2 37214  98.9611 237.4125 0023052 119.8283  11.9367 14.14845541810699
SUOMI NPP               
1 37849U 11061A   26191.24847878  .00000026  00000+0  33600-4 0  9990
2 37849  98.7956 131.9676 0000580 248.7249 111.3865 14.19522037761710
METEOSAT-10 (MSG-3)     
1 38552U 12035B   26191.28179154 -.00000001  00000+0  00000+0 0  9990
2 38552   4.7235  60.9019 0001114  19.3567 309.4606  1.00269960 51084
METOP-B                 
1 38771U 12049A   26191.27783374  .00000048  00000+0  41938-4 0  9992
2 38771  98.6492 242.3150 0001057 286.3191  73.7870 14.21445501716548
INSAT-3D                
1 39216U 13038B   26191.30735832 -.00000330  00000+0  00000+0 0  9991
2 39216   1.9827  82.2494 0000503  77.9398   8.2191  1.00270856 47315
FENGYUN 3C              
1 39260U 13052A   26191.29535005  .00000026  00000+0  34547-4 0  9993
2 39260  98.4994 164.1108 0013872 320.9270  39.0902 14.15760117661830
METEOR-M 2              
1 40069U 14037A   26191.30386685  .00000081  00000+0  56109-4 0  9995
2 40069  98.5127 166.2248 0005450 342.7872  17.3121 14.21468539622603
HIMAWARI-8              
1 40267U 14060A   26190.88188485 -.00000264  00000+0  00000+0 0  9999
2 40267   0.0305 288.7018 0000829 203.5253 253.7182  1.00269387 42989
FENGYUN 2G              
1 40367U 14090A   26190.80719515 -.00000292  00000+0  00000+0 0  9990
2 40367   5.6923  72.5471 0004059 150.8370  94.3226  1.00262790 42228
METEOSAT-11 (MSG-4)     
1 40732U 15034A   26191.28361155  .00000069  00000+0  00000+0 0  9992
2 40732   3.2576  70.9662 0002249 352.1949 336.4015  1.00270327  7440
ELEKTRO-L 2             
1 41105U 15074A   26190.92243847 -.00000112  00000+0  00000+0 0  9998
2 41105   6.7473  70.2440 0000797 224.6641 310.5088  1.00272734 38737
SENTINEL-3A             
1 41335U 16011A   26191.28929382  .00000044  00000+0  36238-4 0  9990
2 41335  98.6239 258.3400 0001396  91.6068 268.5272 14.26738918541355
INSAT-3DR               
1 41752U 16054A   26191.13011167 -.00000066  00000+0  00000+0 0  9995
2 41752   0.0564  89.0001 0010589 181.4377 138.4633  1.00272013 36045
HIMAWARI-9              
1 41836U 16064A   26191.28447437  .00000000  00000+0  00000+0 0  9995
2 41836   0.0237  41.9433 0002433 138.5658 350.8758  1.00270260 35448
GOES 16                 
1 41866U 16071A   26191.31023802 -.00000081  00000+0  00000+0 0  9996
2 41866   0.3906  85.5357 0000510  92.4564 117.2418  1.00271008 35331
FENGYUN 4A              
1 41882U 16077A   26191.30623166 -.00000348  00000+0  00000+0 0  9994
2 41882   2.3775  80.0332 0008382 158.6826 283.5410  1.00271027 35160
CYGFM05                 
1 41884U 16078A   26191.19507238  .00019825  00000+0  25867-3 0  9996
2 41884  34.9560 108.1176 0006952 348.7784  11.2785 15.57691300532349
CYGFM04                 
1 41885U 16078B   26191.02812061  .00024931  00000+0  26662-3 0  9990
2 41885  34.9323  75.7330 0004955  27.0216 333.0768 15.62848724532577
CYGFM02                 
1 41886U 16078C   26190.98346970  .00031246  00000+0  29346-3 0  9995
2 41886  34.9401  69.8749 0005757  30.7043 329.4020 15.66077033532743
CYGFM01                 
1 41887U 16078D   26191.17349868  .00020177  00000+0  25625-3 0  9994
2 41887  34.9391 109.1272 0006861 341.9889  18.0591 15.58402965532294
CYGFM08                 
1 41888U 16078E   26191.09240925  .00023844  00000+0  27131-3 0  9998
2 41888  34.9427  88.6229 0007107  15.7318 344.3628 15.61248785532552
CYGFM07                 
1 41890U 16078G   26191.05007458  .00022776  00000+0  25831-3 0  9997
2 41890  34.9446  77.2267 0005364  28.3700 331.7317 15.61354303532571
CYGFM03                 
1 41891U 16078H   26191.02122249  .00022871  00000+0  25950-3 0  9999
2 41891  34.9400  79.3496 0005394  12.4007 347.6851 15.61340413532549
FENGYUN 3D              
1 43010U 17072A   26191.33352627  .00000523  00000+0  26907-3 0  9991
2 43010  99.0139 166.1754 0001792  24.3365 335.7895 14.19745759448270
NOAA 20 (JPSS-1)        
1 43013U 17073A   26191.26180646  .00000002  00000+0  21984-4 0  9990
2 43013  98.7774 130.5199 0001196 129.2304 230.8978 14.19515837447748
GOES 17                 
1 43226U 18022A   26191.26402478 -.00000173  00000+0  00000+0 0  9992
2 43226   0.9931  85.3338 0000589  76.7091 131.7011  1.00271015 30658
SENTINEL-3B             
1 43437U 18039A   26190.42086302  .00000053  00000+0  40007-4 0  9997
2 43437  98.6239 257.6331 0001016 120.0757 240.0524 14.26741005427298
FENGYUN 2H              
1 43491U 18050A   26191.08358605 -.00000119  00000+0  00000+0 0  9999
2 43491   3.0864  78.8122 0002195 128.8025 189.6973  1.00267887 29660
METOP-C                 
1 43689U 18087A   26191.29583951  .00000047  00000+0  41153-4 0  9993
2 43689  98.6632 250.4757 0002229  99.9121 260.2308 14.21518204398113
GEO-KOMPSAT-2A          
1 43823U 18100A   26191.30718499 -.00000333  00000+0  00000+0 0  9998
2 43823   0.0246 125.7009 0002003 334.7747  66.6073  1.00272278 27868
METEOR-M2 2             
1 44387U 19038A   26191.28536243  .00000346  00000+0  16937-3 0  9990
2 44387  98.9159 178.9127 0001039  13.2765 346.8441 14.24373096364586
ARKTIKA-M 1             
1 47719U 21016A   26188.42887598 -.00000257  00000+0  00000+0 0  9997
2 47719  63.2524  54.6812 7295086 270.0380  14.5466  2.00614486 39194
FENGYUN 3E              
1 49008U 21062A   26191.24436719 -.00000064  00000+0 -94150-5 0  9992
2 49008  98.7504 194.3953 0002487  47.9587 312.1801 14.19905921259857
GOES 18                 
1 51850U 22021A   26191.33562411  .00000107  00000+0  00000+0 0  9996
2 51850   0.0078  75.5119 0000599 116.1688  80.3980  1.00272063  6823
NOAA 21 (JPSS-2)        
1 54234U 22150A   26191.29418373  .00000017  00000+0  28944-4 0  9992
2 54234  98.7061 129.6953 0002717 113.0054 247.1409 14.19540581189820
METEOSAT-12 (MTG-I1)    
1 54743U 22170C   26191.33308481  .00000002  00000+0  00000+0 0  9994
2 54743   0.7198  18.8197 0003827  83.1984 305.9022  1.00266807 13215
TIANMU-1 03             
1 55973U 23039A   26191.26239381  .00010901  00000+0  21076-3 0  9998
2 55973  97.5242   6.1473 0002996  39.1239 321.0227 15.47949457184403
TIANMU-1 04             
1 55974U 23039B   26191.30741830  .00011228  00000+0  21239-3 0  9995
2 55974  97.5175   5.3500 0003521  31.1461 328.9997 15.48570145184422
TIANMU-1 05             
1 55975U 23039C   26191.30893707  .00010815  00000+0  20965-3 0  9993
2 55975  97.5220   5.8023 0003404  58.7629 301.3954 15.47872669184399
TIANMU-1 06             
1 55976U 23039D   26191.31227909  .00011075  00000+0  21027-3 0  9999
2 55976  97.5227   6.4650 0003519  51.6155 308.5411 15.48467807184429
FENGYUN 3G              
1 56232U 23055A   26191.26776942  .00015702  00000+0  24765-3 0  9996
2 56232  49.9915 227.0057 0007163  33.9048 326.2377 15.53641973183594
METEOR-M2 3             
1 57166U 23091A   26191.28501258 -.00000023  00000+0  89876-5 0  9998
2 57166  98.6070 245.7893 0005141 101.2821 258.8936 14.24048650157807
TIANMU-1 07             
1 57399U 23101A   26191.25327304  .00004324  00000+0  15110-3 0  9998
2 57399  97.2585 241.3936 0004016  74.9688 285.1997 15.30078680165171
TIANMU-1 08             
1 57400U 23101B   26191.28525075  .00004393  00000+0  15342-3 0  9992
2 57400  97.2574 241.1921 0005028  59.2172 300.9563 15.30083110165171
TIANMU-1 09             
1 57401U 23101C   26191.26814083  .00004432  00000+0  15456-3 0  9991
2 57401  97.2532 240.5794 0004636  75.7162 284.4593 15.30122369165172
TIANMU-1 10             
1 57402U 23101D   26191.30159980  .00004466  00000+0  15585-3 0  9995
2 57402  97.2612 241.6862 0006004  67.2247 292.9628 15.30096108165175
FENGYUN 3F              
1 57490U 23111A   26191.29819719  .00000012  00000+0  26073-4 0  9992
2 57490  98.6827 260.8753 0001374  78.4529 281.6802 14.19942931152141
ARKTIKA-M 2             
1 58584U 23198A   26189.19640102  .00000204  00000+0  00000+0 0  9996
2 58584  63.2191 152.0158 6908458 267.3598  18.7565  2.00608968 18747
TIANMU-1 11             
1 58645U 23205A   26191.24943749  .00003665  00000+0  14002-3 0  9990
2 58645  97.3446 212.4466 0006787 284.3308  75.7177 15.27232336141042
TIANMU-1 12             
1 58646U 23205B   26191.28681587  .00003809  00000+0  14620-3 0  9990
2 58646  97.3435 212.2324 0005518 257.0213 103.0410 15.27063002141031
TIANMU-1 13             
1 58647U 23205C   26191.32023392  .00003785  00000+0  14531-3 0  9994
2 58647  97.3462 212.5434 0005356 233.2435 126.8312 15.27055727141038
TIANMU-1 14             
1 58648U 23205D   26191.30476650  .00003684  00000+0  14130-3 0  9995
2 58648  97.3399 211.6919 0006029 241.3559 118.7074 15.27099788141031
